[{"OBJECT_NAME":"KUIPER-00099","OBJECT_ID":"2025-171G","EPOCH":"2026-03-09T10:44:10.140576","MEAN_MOTION":14.79933571,"ECCENTRICITY":6.938e-5,"INCLINATION":51.9019,"RA_OF_ASC_NODE":154.1533,"ARG_OF_PERICENTER":27.9295,"MEAN_ANOMALY":332.1705,"EPHEMERIS_TYPE":0,"CLASSIFICATION_TYPE":"U","NORAD_CAT_ID":65138,"ELEMENT_SET_NO":999,"REV_AT_EPOCH":3292,"BSTAR":0.00071909036,"MEAN_MOTION_DOT":5.265e-5,"MEAN_MOTION_DDOT":0},{"OBJECT_NAME":"NOAA 16 DEB","OBJECT_ID":"2000-055CP","EPOCH":"2026-03-09T03:31:48.447264","MEAN_MOTION":14.79605688,"ECCENTRICITY":0.00245733,"INCLINATION":98.9435,"RA_OF_ASC_NODE":325.0039,"ARG_OF_PERICENTER":268.5698,"MEAN_ANOMALY":91.2696,"EPHEMERIS_TYPE":0,"CLASSIFICATION_TYPE":"U","NORAD_CAT_ID":41156,"ELEMENT_SET_NO":999,"REV_AT_EPOCH":53795,"BSTAR":0.0040082675,"MEAN_MOTION_DOT":0.00030255,"MEAN_MOTION_DDOT":0}]
